      2.10          N: GNSS NAV DATA                        RINEX VERSION / TYPE
fic2rin                                 06/26/2022 00:17:48 PGM / RUN BY / DATE
                                                            END OF HEADER
21 22  6 25  6  0  0.0  .161288771778D-03 -.113686837722D-12  .000000000000D+00
     .120000000000D+02 -.895937500000D+02  .429982196199D-08 -.149623660175D+01
    -.447407364845D-05  .242425227771D-01  .681914389133D-05  .515374139977D+04
     .540000000000D+06 -.508502125740D-06  .202238906567D+01  .763684511185D-07
     .960246590125D+00  .254375000000D+03 -.933135270018D+00 -.827784480546D-08
     .117862052285D-10  .100000000000D+01  .221500000000D+04  .000000000000D+00
     .240000000000D+01  .000000000000D+00 -.102445483208D-07  .120000000000D+02
     .532800000000D+06  .400000000000D+01
19 22  6 25  6  0  0.0  .175226945430D-03  .500222085975D-11  .000000000000D+00
     .140000000000D+02 -.978125000000D+01  .437089635109D-08  .693788555307D+00
    -.860542058945D-06  .928453856613D-02  .237300992012D-05  .515370193481D+04
     .540000000000D+06  .745058059692D-08  .116224007916D+01 -.178813934326D-06
     .977202151523D+00  .347187500000D+03  .209843747957D+01 -.834820487910D-08
    -.219652006531D-09  .100000000000D+01  .221500000000D+04  .000000000000D+00
     .240000000000D+01  .000000000000D+00 -.158324837685D-07  .140000000000D+02
     .532800000000D+06  .400000000000D+01
20 22  6 25  6  0  0.0  .508568249643D-03 -.318323145621D-11  .000000000000D+00
     .800000000000D+01 -.345937500000D+02  .456590447396D-08 -.273598470961D+01
    -.167265534401D-05  .475678464863D-02  .100489705801D-04  .515360570145D+04
     .540000000000D+06 -.596046447754D-07  .299189408396D+01  .000000000000D+00
     .943965015566D+00  .175781250000D+03 -.312033078509D+01 -.793568769610D-08
     .525736184737D-09  .100000000000D+01  .221500000000D+04  .000000000000D+00
     .240000000000D+01  .000000000000D+00 -.838190317154D-08  .800000000000D+01
     .532800000000D+06  .400000000000D+01
12 22  6 25  6  0  0.0 -.236431136727D-03 -.591171556152D-11  .000000000000D+00
     .520000000000D+02  .114218750000D+03  .428732144129D-08  .117502733345D+01
     .574626028538D-05  .857749977149D-02  .791996717453D-05  .515378269958D+04
     .540000000000D+06 -.171363353729D-06  .794680639010D-01 -.502914190292D-07
     .969265579562D+00  .232937500000D+03  .130910633260D+01 -.804212070089D-08
    -.125005206969D-10  .100000000000D+01  .221500000000D+04  .000000000000D+00
     .240000000000D+01  .000000000000D+00 -.125728547573D-07  .520000000000D+02
     .532800000000D+06  .400000000000D+01
10 22  6 25  6  0  0.0 -.468057114631D-03 -.143245415529D-10  .000000000000D+00
     .850000000000D+02 -.301562500000D+02  .406302638421D-08  .455869094195D+00
    -.154040753841D-05  .764991086908D-02  .960566103458D-05  .515368312263D+04
     .540000000000D+06 -.186264514923D-08 -.313557242531D+01  .171363353729D-06
     .974431592416D+00  .204843750000D+03 -.250146488725D+01 -.774675125471D-08
     .498592196938D-09  .100000000000D+01  .221500000000D+04  .000000000000D+00
     .240000000000D+01  .000000000000D+00  .232830643654D-08  .850000000000D+02
     .532800000000D+06  .400000000000D+01
7  22  6 25  6  0  0.0  .321144238114D-03 -.795807864051D-12  .000000000000D+00
     .590000000000D+02 -.656250000000D+00  .486448833975D-08  .181038201503D+01
    -.113621354103D-06  .162693676539D-01  .948831439018D-05  .515365852547D+04
     .540000000000D+06 -.389292836189D-06 -.103361336692D+01 -.162050127983D-06
     .950448680197D+00  .197375000000D+03 -.225806373458D+01 -.805319259065D-08
    -.402873924173D-09  .100000000000D+01  .221500000000D+04  .000000000000D+00
     .240000000000D+01  .000000000000D+00 -.111758708954D-07  .590000000000D+02
     .532800000000D+06  .400000000000D+01
6  22  6 25  6  0  0.0  .357818789780D-03  .158024704433D-10  .000000000000D+00
     .610000000000D+02 -.102375000000D+03  .360800743085D-08  .269253483868D+01
    -.518746674061D-05  .247721932828D-02  .751763582230D-05  .515375156212D+04
     .540000000000D+06 -.335276126862D-07  .210855713492D+01 -.372529029846D-07
     .987238809682D+00  .249687500000D+03 -.856341606157D+00 -.762603194055D-08
    -.167149819604D-09  .100000000000D+01  .221500000000D+04  .000000000000D+00
     .240000000000D+01  .000000000000D+00  .372529029846D-08  .610000000000D+02
     .532800000000D+06  .400000000000D+01
4  22  6 25  6  0  0.0 -.153308734298D-03  .420641299570D-11  .000000000000D+00
     .100000000000D+03 -.412500000000D+01  .493556272886D-08 -.203459796407D+01
    -.437721610069D-06  .186285097152D-02  .580959022045D-05  .515359267616D+04
     .540000000000D+06  .465661287308D-07 -.205170653939D+01 -.726431608200D-07
     .961186077578D+00  .270937500000D+03 -.297230737809D+01 -.815676833357D-08
     .150720563831D-09  .100000000000D+01  .221500000000D+04  .000000000000D+00
     .240000000000D+01  .000000000000D+00 -.465661287308D-08  .356000000000D+03
     .532800000000D+06  .400000000000D+01
24 22  6 25  6  0  0.0  .212880317122D-03 -.898126018001D-11  .000000000000D+00
     .370000000000D+02 -.293750000000D+01  .517735851491D-08  .278547356636D+01
    -.284984707832D-06  .125696414616D-01  .919960439205D-05  .515368298912D+04
     .540000000000D+06 -.316649675369D-07 -.111855841178D+01 -.216066837311D-06
     .933902090714D+00  .186250000000D+03  .819239408450D+00 -.797104631179D-08
    -.463590738987D-09  .100000000000D+01  .221500000000D+04  .000000000000D+00
     .240000000000D+01  .000000000000D+00  .279396772385D-08  .370000000000D+02
     .532800000000D+06  .400000000000D+01
17 22  6 25  6  0  0.0  .629193149507D-03  .454747350886D-11  .000000000000D+00
     .300000000000D+02  .171875000000D+01  .430339353933D-08 -.160740330918D+01
     .247731804848D-06  .135327383177D-01  .205077230930D-05  .515356867218D+04
     .540000000000D+06 -.186264514923D-08  .111745710511D+01  .327825546265D-06
     .978373104801D+00  .351218750000D+03 -.149074441668D+01 -.820784188956D-08
    -.173935816553D-09  .100000000000D+01  .221500000000D+04  .000000000000D+00
     .240000000000D+01  .000000000000D+00 -.111758708954D-07  .300000000000D+02
     .532800000000D+06  .400000000000D+01
15 22  6 25  6  0  0.0 -.505293719471D-04  .295585778076D-11  .000000000000D+00
     .101000000000D+03  .312500000000D-01  .556023160596D-08 -.258087172657D+01
    -.355765223503D-06  .141510365065D-01  .530853867531D-05  .515356776619D+04
     .540000000000D+06  .212341547012D-06 -.221521759677D+01 -.782310962677D-07
     .930337079314D+00  .256656250000D+03  .109717533175D+01 -.825748681461D-08
     .367515308488D-09  .100000000000D+01  .221500000000D+04  .000000000000D+00
     .240000000000D+01  .000000000000D+00 -.107102096081D-07  .101000000000D+03
     .532800000000D+06  .400000000000D+01
9  22  6 25  6  0  0.0 -.325265340507D-03  .352429196937D-11  .000000000000D+00
     .780000000000D+02 -.212500000000D+01  .511878464650D-08 -.109638222826D+01
    -.139698386192D-06  .217671378050D-02  .580586493015D-05  .515379882240D+04
     .540000000000D+06 -.447034835815D-07 -.210572533075D+01 -.298023223877D-07
     .954292302882D+00  .270437500000D+03  .191114707648D+01 -.825320092180D-08
     .173935816553D-09  .100000000000D+01  .221500000000D+04  .000000000000D+00
     .240000000000D+01  .000000000000D+00  .139698386192D-08  .780000000000D+02
     .532800000000D+06  .400000000000D+01
13 22  6 25  6  0  0.0  .336288940161D-03  .704858393874D-11  .000000000000D+00
     .560000000000D+02 -.790625000000D+01  .476269838550D-08 -.203619376485D+01
    -.562518835068D-06  .602841190994D-02  .570341944695D-05  .515366613770D+04
     .540000000000D+06  .875443220139D-07 -.195075122690D+01 -.186264514923D-07
     .968464633376D+00  .270625000000D+03  .914610127720D+00 -.794497379719D-08
     .989326923723D-10  .100000000000D+01  .221500000000D+04  .000000000000D+00
     .240000000000D+01  .000000000000D+00 -.116415321827D-07  .560000000000D+02
     .532800000000D+06  .400000000000D+01
14 22  6 25  6  0  0.0 -.111907720566D-03 -.341060513165D-12  .000000000000D+00
     .142000000000D+03  .105937500000D+03  .468769526132D-08  .113226828754D+01
     .560842454433D-05  .205060152803D-02  .699795782566D-05  .515366541100D+04
     .540000000000D+06  .521540641785D-07  .461498398575D-01  .558793544769D-08
     .952649527802D+00  .237500000000D+03 -.312396029509D+01 -.815605401810D-08
    -.935753263594D-10  .100000000000D+01  .221500000000D+04  .000000000000D+00
     .240000000000D+01  .000000000000D+00 -.791624188423D-08  .910000000000D+03
     .532800000000D+06  .400000000000D+01
11 22  6 25  6  0  0.0 -.130254775286D-04  .193267624127D-11  .000000000000D+00
     .238000000000D+03 -.103468750000D+03  .405231165219D-08 -.161962543528D+01
    -.524707138538D-05  .488494755700D-03  .789389014244D-05  .515359912491D+04
     .540000000000D+06 -.614672899246D-07  .215759043751D+01  .633299350739D-07
     .963143346398D+00  .227625000000D+03  .283423008193D+01 -.788318550918D-08
    -.610739725475D-10  .100000000000D+01  .221500000000D+04  .000000000000D+00
     .240000000000D+01  .000000000000D+00 -.838190317154D-08  .750000000000D+03
     .532800000000D+06  .400000000000D+01
31 22  6 25  6  0  0.0 -.183178111911D-03 -.159161572810D-11  .000000000000D+00
     .890000000000D+02  .281250000000D+00  .481877214977D-08  .131873588552D+01
     .329688191414D-06  .104379963595D-01  .964105129242D-05  .515376217270D+04
     .540000000000D+06 -.353902578354D-07 -.101499637970D+01  .145286321640D-06
     .954650284788D+00  .191218750000D+03  .398415709122D+00 -.809998025383D-08
    -.590381734626D-09  .100000000000D+01  .221500000000D+04  .000000000000D+00
     .340000000000D+01  .000000000000D+00 -.135041773319D-07  .890000000000D+02
     .532800000000D+06  .400000000000D+01
